[{"OBJECT_NAME":"YAOGAN-30 11A","OBJECT_ID":"2021-065A","EPOCH":"2026-03-09T17:03:27.605952","MEAN_MOTION":15.0211069,"ECCENTRICITY":0.00046738,"INCLINATION":34.9929,"RA_OF_ASC_NODE":159.1721,"ARG_OF_PERICENTER":355.4238,"MEAN_ANOMALY":4.6427,"EPHEMERIS_TYPE":0,"CLASSIFICATION_TYPE":"U","NORAD_CAT_ID":49026,"ELEMENT_SET_NO":999,"REV_AT_EPOCH":25367,"BSTAR":0.00035664483,"MEAN_MOTION_DOT":4.757e-5,"MEAN_MOTION_DDOT":0},{"OBJECT_NAME":"STARLINK-5681","OBJECT_ID":"2023-015W","EPOCH":"2026-03-09T22:00:01.999584","MEAN_MOTION":15.03925616,"ECCENTRICITY":8.484e-5,"INCLINATION":43.0013,"RA_OF_ASC_NODE":324.6279,"ARG_OF_PERICENTER":316.9401,"MEAN_ANOMALY":259.5723,"EPHEMERIS_TYPE":0,"CLASSIFICATION_TYPE":"U","NORAD_CAT_ID":55469,"ELEMENT_SET_NO":999,"REV_AT_EPOCH":577,"BSTAR":0.0013891013,"MEAN_MOTION_DOT":0.00019319,"MEAN_MOTION_DDOT":0}]
